C/2020 A2 (NEOWISE),e,120.6394,286.3069,68.0996,1445,0.0000180,0.99932541,0.0000,01/08.5339/2020,2000,g 13.5,4.0
# From MPEC 2023-A50
C/2020 A3 (ATLAS),h,06/29.1803/2019,146.6715,120.8040,268.3795,1.000929,5.760873,2000,8.0,4.0
# From MPEC 2022-P91
P/2020 A4 (PANSTARRS-Lemmon),e,24.9906,312.3812,144.7687,8.193985,0.0420205,0.65395642,51.8993,04/11.0/2023,2000,g 15.0,4.0
# From MPEC 2020-N08
A/2020 B1,e,18.5188,309.9572,154.7238,51.40074,0.0026745,0.96612506,3.2140,04/11.0/2023,2000,g 21.0,2.0
# From MPEC 2022-N37
C/2020 B3 (Rankin),e,20.7097,185.8478,324.9175,951.2478,0.0000336,0.99649198,0.0000,10/19.4317/2019,2000,g 13.0,4.0
# From MPEC 2022-H04
P/2020 B4 (Sheppard),e,11.6093,185.9791,342.0887,7.966838,0.0438304,0.19180663,22.2423,04/11.0/2023,2000,g 10.5,4.0
# From MPEC 2023-G31
C/2020 F2 (ATLAS),h,07/14.9829/2022,163.5880,250.2879,48.3314,1.005399,8.816730,2000,4.5,4.0
# From MPEC 2021-O56
C/2020 F3 (NEOWISE),e,129.1063,61.0729,37.3598,357.1016,0.0001461,0.99917195,0.0000,07/03.7133/2020,2000,g  7.5,5.2
# From MPEC 2023-C45
C/2020 F5 (MASTER),e,52.2092,350.5026,310.6801,179.0352,0.0004114,0.97584698,0.0000,03/17.6531/2021,2000,g  6.5,3.2
# From MPEC 2020-L06
C/2020 F6 (PANSTARRS),e,174.5830,207.9080,344.5572,402.8008,0.0001219,0.99129612,0.0000,04/11.7169/2020,2000,g 14.5,2.8
# From MPEC 2023-D72
C/2020 F7 (Lemmon),e,93.9508,321.8715,227.9503,587.8101,0.0000692,0.99092891,0.0000,11/13.7526/2021,2000,g  7.0,4.0
# From MPEC 2020-KB7
C/2020 F8 (SWAN),e,110.6509,259.8748,68.1302,255.0685,0.0002419,0.99831593,0.0000,05/27.3598/2020,2000,g 10.0,4.0
# From MPEC 2020-L06
P/2020 G1 (Pimentel),e,18.5091,240.1248,207.5957,3.608384,0.1437921,0.86035516,160.9613,04/11.0/2023,2000,g 17.0,4.0
# From MPEC 2022-YB4
C/2020 H2 (Pruyne),e,124.9202,277.6643,26.6711,189.9720,0.0003764,0.99562311,0.0000,04/27.8221/2020,2000,g 14.0,3.2
# From MPEC 2020-HM1
C/2020 H3 (Wierzchos),p,06/05.7162/2020,62.5292,30.4456,2.300288,270.6227,2000,13.5,4.0
# From MPEC 2020-L06
C/2020 H4 (Leonard),e,84.4979,307.6543,117.5445,47.86317,0.0029765,0.98068152,0.0000,08/29.6391/2020,2000,g 15.0,3.2
# From MPEC 2023-G31
C/2020 H5 (Robinson),e,70.2546,210.6274,326.3438,3849,0.0000041,0.99757261,0.0000,12/10.8683/2020,2000,g  5.0,4.0
# From MPEC 2023-E68
C/2020 H6 (ATLAS),e,79.9777,213.7191,20.3076,11469,0.0000008,0.99959001,0.0000,09/30.7288/2021,2000,g  8.0,3.2
# From MPEC 2020-KB7
C/2020 H7 (Lemmon),e,135.9235,323.5194,82.6780,1405,0.0000187,0.99685380,0.0000,06/02.9510/2020,2000,g 11.0,4.0
# From MPEC 2021-N06
C/2020 H8 (PANSTARRS),e,99.6868,68.4254,128.9394,597.1642,0.0000675,0.99217134,0.0000,06/04.5084/2020,2000,g 10.5,4.0
# From MPEC 2022-ED3
A/2020 H9,e,137.8788,213.1803,312.8377,371.4899,0.0001377,0.99307054,0.0000,12/21.6183/2019,2000,g 18.0,2.0
# From MPEC 2023-E68
C/2020 J1 (SONEAR),h,04/18.6364/2021,142.3050,226.6033,341.7458,1.000759,3.353515,2000,8.5,3.2
# From MPEC 2023-G31
C/2020 K1 (PANSTARRS),e,89.6704,94.3552,213.9843,319570,0.0000000,0.99999038,0.0000,05/09.0814/2023,2000,g  5.5,4.0
# From MPEC 2021-N06
C/2020 K2 (PANSTARRS),h,08/06.3581/2020,91.0286,288.3921,67.3506,1.003899,8.879877,2000,10.8,4.0
# From MPEC 2020-KF9
C/2020 K3 (Leonard),p,06/01.0032/2020,129.0152,64.4924,1.583069,28.3546,2000,14.5,4.0
# From MPEC 2020-L06
C/2020 K4 (PANSTARRS),e,125.5826,264.1907,308.8608,23.96170,0.0084029,0.92680792,9.5210,04/11.0/2023,2000,g 16.5,4.0
# From MPEC 2021-R75
C/2020 K5 (PANSTARRS),h,06/05.4767/2021,67.1174,86.1626,249.6109,1.001387,1.536694,2000,11.0,4.0
# From MPEC 2023-E68
C/2020 K6 (Rankin),h,09/15.8339/2021,103.6497,291.5519,44.3363,1.003672,5.868858,2000,8.0,4.0
# From MPEC 2023-A50
C/2020 K7 (PANSTARRS),e,32.0417,286.0789,358.2565,98.78250,0.0010039,0.93527653,1.2657,04/11.0/2023,2000,g  8.0,4.0
# From MPEC 2021-P47
C/2020 K8 (Catalina-ATLAS),h,09/14.8258/2020,31.4265,181.5378,259.9597,1.000181,0.472063,2000,15.0,3.2
# From MPEC 2021-BE3
P/2020 K9 (Lemmon-PANSTARRS),e,23.2083,166.2435,197.0551,4.202734,0.1143948,0.32128713,90.0979,04/11.0/2023,2000,g 12.5,4.0
# From MPEC 2023-C45
P/2020 M1 (PANSTARRS),e,8.5390,142.6334,72.6442,5.317143,0.0803871,0.47385338,96.6108,04/11.0/2023,2000,g 14.5,4.0
# From MPEC 2022-H30
C/2020 M3 (ATLAS),e,23.4767,71.1630,328.5547,27.09194,0.0069895,0.95318096,6.2705,04/11.0/2023,2000,g 14.5,4.0
# From MPEC 2023-B57
A/2020 M4,h,11/24.1897/2020,160.1256,348.6228,104.6381,1.001031,5.950999,2000,14.5,2.0
# From MPC xxxxx
P/2020 MK4 (PANSTARRS),e,6.7998,0.7154,104.0324,6.203772,0.0637853,0.01175375,255.8324,04/11.0/2023,2000,g  8.0,4.0
# From MPEC 2023-FK0
C/2020 M5 (ATLAS),h,08/19.8590/2021,93.2199,352.0905,126.3066,1.000402,3.002946,2000,9.0,4.0
# From MPEC 2022-GA9
C/2020 N1 (PANSTARRS),h,03/12.3382/2021,29.7241,279.9295,186.7595,1.000464,1.318645,2000,12.5,4.0
# From MPEC 2021-P47
C/2020 N2 (ATLAS),e,161.0339,257.1562,331.3138,104.5120,0.0009225,0.98284542,0.0000,08/24.0686/2020,2000,g 16.0,3.2
# From MPEC 2023-F99
P/2020 O1 (Lemmon-PANSTARRS),e,5.2255,175.9748,104.4829,2.645730,0.2290265,0.11885887,246.0359,04/11.0/2023,2000,g 15.5,4.0
# From MPEC 2022-Y15
C/2020 O2 (Amaral),h,08/28.5367/2021,71.7600,256.7718,10.3056,1.001646,4.862431,2000,8.0,3.2
# From MPEC 2023-C45
P/2020 O3 (PANSTARRS),e,8.4441,266.8186,81.6518,4.647878,0.0983608,0.10315784,78.7546,04/11.0/2023,2000,g 12.0,4.0
# From MPEC 2021-BE3
C/2020 P1 (NEOWISE),h,10/20.4197/2020,45.1708,53.4869,8.8900,1.000314,0.341020,2000,14.0,3.2
# From MPEC 2023-G31
C/2020 P3 (ATLAS),h,04/21.3302/2021,61.8894,19.4656,82.2740,1.001382,6.812528,2000,6.0,4.0
# From MPEC 2022-PB4
C/2020 PV6 (PANSTARRS),e,128.2277,329.1488,71.3860,42.06742,0.0036123,0.94544212,2.0298,04/11.0/2023,2000,g 10.0,4.0
# From MPEC 2022-L66
C/2020 Q1 (Borisov),e,142.9413,52.3901,9.9548,60.89030,0.0020743,0.97835825,0.0000,08/14.4281/2020,2000,g 14.0,4.0
# From MPEC 2023-CD7
C/2020 Q2 (PANSTARRS),e,3.3362,179.8286,118.2662,10.65018,0.0283575,0.49228838,33.0924,04/11.0/2023,2000,g 12.0,3.2
# From MPEC 2022-X67
C/2020 R2 (PANSTARRS),e,53.2281,195.0932,211.7911,409.3010,0.0001190,0.98853471,0.0000,02/24.8849/2022,2000,g  9.0,4.0
# From MPEC 2022-K19
C/2020 R4 (ATLAS),e,164.4524,323.2726,46.6901,99.82387,0.0009882,0.98971128,0.0000,03/02.1581/2021,2000,g 13.5,4.0
# From MPEC 2023-C45
P/2020 R5 (PANSTARRS),e,11.4453,272.9696,82.6146,4.987336,0.0884914,0.31450757,92.6094,04/11.0/2023,2000,g  9.5,6.0
# From MPEC 2021-Y10
C/2020 R6 (Rankin),e,82.8123,12.1783,271.9922,316.7041,0.0001749,0.99010466,0.0000,09/08.5776/2019,2000,g 11.0,4.0
# From MPEC 2023-G31
C/2020 R7 (ATLAS),h,09/16.2527/2022,114.8957,268.2836,347.8415,1.000236,2.955992,2000,7.0,3.2
# From MPEC 2021-BE3
P/2020 S1 (PANSTARRS),e,13.7284,129.4624,255.0246,5.992848,0.0671822,0.50773614,54.6503,04/11.0/2023,2000,g 14.0,4.0
# From MPEC 2022-ST7
C/2020 S2 (PANSTARRS),e,22.4044,197.6625,202.3430,10.22193,0.0301581,0.82812360,25.3270,04/11.0/2023,2000,g 17.0,4.0
# From MPEC 2022-C56
C/2020 S3 (Erasmus),e,20.0170,222.5987,350.0949,152.9453,0.0005211,0.99741000,0.0000,12/12.0732/2020,2000,g 13.5,3.2
# From MPEC 2023-G31
C/2020 S4 (PANSTARRS),h,02/09.2390/2023,20.5693,117.7209,20.9918,1.001280,3.369730,2000,8.5,3.2
# From MPEC 2021-BE3
P/2020 S5 (PANSTARRS),e,12.3475,315.9996,53.2205,4.054278,0.1207352,0.33848207,117.7049,04/11.0/2023,2000,g 14.5,4.0
# From MPEC 2021-BE3
P/2020 S7 (PANSTARRS),e,16.0874,328.0288,40.5845,5.030616,0.0873519,0.41067932,76.2804,04/11.0/2023,2000,g 14.5,4.0
# From MPEC 2021-P47
C/2020 S8 (Lemmon),e,108.5275,24.0680,160.2780,263.7171,0.0002301,0.99104503,0.0000,04/10.8299/2021,2000,g 12.5,4.0
# From MPEC 2022-ST7
C/2020 T2 (Palomar),e,27.8552,82.9709,150.5182,307.6694,0.0001826,0.99331313,0.0000,07/11.0311/2021,2000,g 11.0,3.2
# From MPEC 2021-N06
P/2020 T3 (PANSTARRS),e,7.2988,73.9891,357.0397,3.516986,0.1494335,0.59208844,121.0735,04/11.0/2023,2000,g 18.0,3.2
# From MPEC 2021-N06
C/2020 T4 (PANSTARRS),h,07/05.3322/2021,83.8393,50.6149,79.6071,1.000246,2.191441,2000,13.0,3.2
# From MPEC 2021-BE3
C/2020 T5 (Lemmon),e,66.5603,237.8423,90.3350,751.4415,0.0000478,0.99748311,0.0000,10/09.3425/2020,2000,g 16.0,4.0
# From MPEC 2021-N06
P/2020 U2 (PANSTARRS),e,6.4196,342.8847,84.6465,3.778048,0.1342156,0.51111460,112.1984,04/11.0/2023,2000,g 18.0,4.0
# From MPEC 2021-W31
C/2020 U3 (Rankin),e,30.1578,282.6428,124.3414,66.50364,0.0018173,0.96575951,1.4426,04/11.0/2023,2000,g 15.0,4.0
# From MPEC 2023-CD7
C/2020 U4 (PANSTARRS),h,04/09.4429/2022,167.0249,120.2828,69.9695,1.002026,5.357416,2000,7.0,4.0
# From MPEC 2022-YB4
C/2020 U5 (PANSTARRS),e,97.2729,107.3272,75.4333,3817,0.0000042,0.99901588,0.0000,04/27.9616/2022,2000,g  8.0,4.0
# From MPEC 2023-G31
C/2020 V2 (ZTF),h,05/08.5670/2023,131.6113,212.3717,162.4307,1.001048,2.227841,2000,4.9,4.0
# From MPEC 2023-D72
P/2020 V3 (PANSTARRS),e,23.0330,198.2523,249.3606,8.385006,0.0405928,0.25690592,32.1008,04/11.0/2023,2000,g  8.3,4.0
# From MPEC 2023-FK0
P/2020 V4 (Rankin),e,14.2442,203.4830,257.0323,9.367908,0.0343748,0.45041574,21.7170,04/11.0/2023,2000,g  9.0,4.0
# From MPEC 2021-BE3
P/2020 W1 (Rankin),e,10.7871,124.2720,265.1453,7.214434,0.0508629,0.26632683,55.8209,04/11.0/2023,2000,g 10.0,4.0
# From MPEC 2021-BE3
C/2020 W5 (Lemmon),h,11/30.1081/2020,88.5960,75.4704,24.4993,1.000785,3.365288,2000,15.0,4.0
# From MPEC 2023-G31
P/2020 WJ5 (Lemmon),e,22.2935,177.8092,338.1791,6.015963,0.0667954,0.17134836,43.3539,04/11.0/2023,2000,g  8.5,4.0
# From MPEC 2021-P47
P/2020 X1 (ATLAS),e,31.6929,55.9914,323.4278,4.530762,0.1021991,0.36547022,101.5997,04/11.0/2023,2000,g 13.0,4.0
# From MPEC 2021-U31
C/2020 X2 (ATLAS),e,18.1850,105.4219,347.3722,16.45263,0.0147690,0.76738432,12.9365,04/11.0/2023,2000,g 10.6,4.0
# From MPEC 2021-S45
C/2020 X4 (Leonard),e,80.6070,161.8828,140.3064,40.71306,0.0037941,0.87173291,3.3237,04/11.0/2023,2000,g  9.0,4.0
# From MPEC 2023-D72
C/2020 Y2 (ATLAS),e,101.3001,26.5130,266.1405,1140,0.0000256,0.99725148,0.0000,06/17.8329/2022,2000,g  6.5,4.0
# From MPEC 2021-R75
